
# Worst residual: 47.95 km
# MJD 58245.000000 (2018 May  7  0:00)
Gaia = 2013-074A = NORAD 39479
1 39479U 13074A   18127.49919926  .00000000  00000-0  00000-0 2  5959
2 39479 035.1309 024.4567 8108716 034.6390 175.6800 00.01042592    09

# Worst residual: 49.29 km
# MJD 58246.000000 (2018 May  8  0:00)
Gaia = 2013-074A = NORAD 39479
1 39479U 13074A   18128.49919926  .00000000  00000-0  00000-0 2  5950
2 39479 035.4525 024.8324 8188945 034.8901 176.1566 00.01048617    08

# Worst residual: 50.42 km
# MJD 58247.000000 (2018 May  9  0:00)
Gaia = 2013-074A = NORAD 39479
1 39479U 13074A   18129.49919926  .00000000  00000-0  00000-0 2  5951
2 39479 035.7657 025.2002 8267601 035.1665 176.4701 00.01054547    06

# Worst residual: 50.77 km
# MJD 58248.000000 (2018 May 10  0:00)
Gaia = 2013-074A = NORAD 39479
1 39479U 13074A   18130.49919926  .00000000  00000-0  00000-0 2  5953
2 39479 036.0622 025.5504 8343198 035.4748 176.6134 00.01060228    08

# Worst residual: 50.54 km
# MJD 58249.000000 (2018 May 11  0:00)
Gaia = 2013-074A = NORAD 39479
1 39479U 13074A   18131.49919926  .00000000  00000-0  00000-0 2  5954
2 39479 036.3323 025.8714 8414216 035.8234 176.5816 00.01065484    04

# Worst residual: 49.77 km
# MJD 58250.000000 (2018 May 12  0:00)
Gaia = 2013-074A = NORAD 39479
1 39479U 13074A   18132.49919926  .00000000  00000-0  00000-0 2  5955
2 39479 036.5641 026.1491 8478993 036.2222 176.3758 00.01070125    00

# Worst residual: 48.39 km
# MJD 58251.000000 (2018 May 13  0:00)
Gaia = 2013-074A = NORAD 39479
1 39479U 13074A   18133.49919926  .00000000  00000-0  00000-0 2  5956
2 39479 036.7446 026.3674 8535819 036.6818 176.0065 00.01073954    07

# Worst residual: 48.33 km
# MJD 58252.000000 (2018 May 14  0:00)
Gaia = 2013-074A = NORAD 39479
1 39479U 13074A   18134.49919926  .00000000  00000-0  00000-0 2  5957
2 39479 036.8612 026.5101 8583050 037.2122 175.4969 00.01076780    01

# Worst residual: 51.70 km
# MJD 58253.000000 (2018 May 15  0:00)
Gaia = 2013-074A = NORAD 39479
1 39479U 13074A   18135.49919926  .00000000  00000-0  00000-0 2  5958
2 39479 036.9033 026.5625 8619253 037.8211 174.8860 00.01078449    07

# Worst residual: 54.24 km
# MJD 58254.000000 (2018 May 16  0:00)
Gaia = 2013-074A = NORAD 39479
1 39479U 13074A   18136.49919926  .00000000  00000-0  00000-0 2  5959
2 39479 036.9345 026.6028 8646108 038.4469 174.1821 00.01079076    09

# Worst residual: 55.83 km
# MJD 58255.000000 (2018 May 17  0:00)
Gaia = 2013-074A = NORAD 39479
1 39479U 13074A   18137.49919926  .00000000  00000-0  00000-0 2  5950
2 39479 036.7542 026.3690 8655489 039.2776 173.5830 00.01078038    00

# Worst residual: 56.25 km
# MJD 58256.000000 (2018 May 18  0:00)
Gaia = 2013-074A = NORAD 39479
1 39479U 13074A   18138.49919926  .00000000  00000-0  00000-0 2  5951
2 39479 036.5764 026.1303 8655785 040.1090 173.0193 00.01076051    02

# Worst residual: 55.69 km
# MJD 58257.000000 (2018 May 19  0:00)
Gaia = 2013-074A = NORAD 39479
1 39479U 13074A   18139.49919926  .00000000  00000-0  00000-0 2  5952
2 39479 036.3498 025.8161 8645676 040.9869 172.5940 00.01073094    00

# Worst residual: 53.37 km
# MJD 58258.000000 (2018 May 20  0:00)
Gaia = 2013-074A = NORAD 39479
1 39479U 13074A   18140.49919926  .00000000  00000-0  00000-0 2  5954
2 39479 036.1366 025.5106 8627592 041.8457 172.3028 00.01069431    03

# Worst residual: 51.92 km
# MJD 58259.000000 (2018 May 21  0:00)
Gaia = 2013-074A = NORAD 39479
1 39479U 13074A   18141.49919926  .00000000  00000-0  00000-0 2  5955
2 39479 035.8256 025.0487 8602349 042.7943 172.3192 00.01065296    04

# Worst residual: 49.22 km
# MJD 58260.000000 (2018 May 22  0:00)
Gaia = 2013-074A = NORAD 39479
1 39479U 13074A   18142.49919926  .00000000  00000-0  00000-0 2  5956
2 39479 035.5613 024.6396 8573925 043.6818 172.5065 00.01061008    08

# Worst residual: 46.30 km
# MJD 58261.000000 (2018 May 23  0:00)
Gaia = 2013-074A = NORAD 39479
1 39479U 13074A   18143.49919926  .00000000  00000-0  00000-0 2  5957
2 39479 035.3113 024.2377 8544254 044.5365 172.9086 00.01056807    04

# Worst residual: 43.40 km
# MJD 58262.000000 (2018 May 24  0:00)
Gaia = 2013-074A = NORAD 39479
1 39479U 13074A   18144.49919926  .00000000  00000-0  00000-0 2  5958
2 39479 035.0822 023.8556 8515583 045.3484 173.5092 00.01052910    01

# Worst residual: 39.69 km
# MJD 58263.000000 (2018 May 25  0:00)
Gaia = 2013-074A = NORAD 39479
1 39479U 13074A   18145.49919926  .00000000  00000-0  00000-0 2  5959
2 39479 034.9141 023.5660 8489854 046.0625 174.2640 00.01049481    08

# Worst residual: 38.30 km
# MJD 58264.000000 (2018 May 26  0:00)
Gaia = 2013-074A = NORAD 39479
1 39479U 13074A   18146.49919926  .00000000  00000-0  00000-0 2  5950
2 39479 034.6965 023.1774 8468628 046.8297 175.2015 00.01046681    06

# Worst residual: 36.10 km
# MJD 58265.000000 (2018 May 27  0:00)
Gaia = 2013-074A = NORAD 39479
1 39479U 13074A   18147.49919926  .00000000  00000-0  00000-0 2  5951
2 39479 034.5743 022.9521 8453653 047.4528 176.1966 00.01044610    07

# Worst residual: 34.99 km
# MJD 58266.000000 (2018 May 28  0:00)
Gaia = 2013-074A = NORAD 39479
1 39479U 13074A   18148.49919926  .00000000  00000-0  00000-0 2  5952
2 39479 034.3996 022.6188 8443813 048.1433 177.3254 00.01043201    09

# Worst residual: 34.17 km
# MJD 58267.000000 (2018 May 29  0:00)
Gaia = 2013-074A = NORAD 39479
1 39479U 13074A   18149.49919926  .00000000  00000-0  00000-0 2  5953
2 39479 034.2761 022.3749 8441188 048.7586 178.4562 00.01042591    01

# Worst residual: 33.95 km
# MJD 58268.000000 (2018 May 30  0:00)
Gaia = 2013-074A = NORAD 39479
1 39479U 13074A   18150.49919926  .00000000  00000-0  00000-0 2  5955
2 39479 034.1635 022.1457 8445081 049.3617 179.5832 00.01042725    03

# Worst residual: 34.35 km
# MJD 58269.000000 (2018 May 31  0:00)
Gaia = 2013-074A = NORAD 39479
1 39479U 13074A   18151.49919926  .00000000  00000-0  00000-0 2  5956
2 39479 034.0573 021.9227 8455103 049.9652 180.6724 00.01043566    03

# Worst residual: 35.25 km
# MJD 58270.000000 (2018 Jun  1  0:00)
Gaia = 2013-074A = NORAD 39479
1 39479U 13074A   18152.49919926  .00000000  00000-0  00000-0 2  5957
2 39479 033.9530 021.6970 8470634 050.5812 181.6946 00.01045060    06

# Worst residual: 36.59 km
# MJD 58271.000000 (2018 Jun  2  0:00)
Gaia = 2013-074A = NORAD 39479
1 39479U 13074A   18153.49919926  .00000000  00000-0  00000-0 2  5958
2 39479 033.8461 021.4585 8490881 051.2216 182.6258 00.01047140    08

# Worst residual: 38.30 km
# MJD 58272.000000 (2018 Jun  3  0:00)
Gaia = 2013-074A = NORAD 39479
1 39479U 13074A   18154.49919926  .00000000  00000-0  00000-0 2  5959
2 39479 033.7323 021.1966 8514934 051.8979 183.4467 00.01049728    07

# Worst residual: 40.38 km
# MJD 58273.000000 (2018 Jun  4  0:00)
Gaia = 2013-074A = NORAD 39479
1 39479U 13074A   18155.49919926  .00000000  00000-0  00000-0 2  5950
2 39479 033.6076 020.9000 8541773 052.6212 184.1419 00.01052733    02

# Worst residual: 42.76 km
# MJD 58274.000000 (2018 Jun  5  0:00)
Gaia = 2013-074A = NORAD 39479
1 39479U 13074A   18156.49919926  .00000000  00000-0  00000-0 2  5951
2 39479 033.4678 020.5563 8570300 053.4029 184.6983 00.01056052    00

# Worst residual: 45.43 km
# MJD 58275.000000 (2018 Jun  6  0:00)
Gaia = 2013-074A = NORAD 39479
1 39479U 13074A   18157.49919926  .00000000  00000-0  00000-0 2  5952
2 39479 033.3095 020.1523 8599320 054.2547 185.1046 00.01059571    06

# Worst residual: 48.39 km
# MJD 58276.000000 (2018 Jun  7  0:00)
Gaia = 2013-074A = NORAD 39479
1 39479U 13074A   18158.49919926  .00000000  00000-0  00000-0 2  5953
2 39479 033.1290 019.6737 8627506 055.1890 185.3507 00.01063153    05

# Worst residual: 51.56 km
# MJD 58277.000000 (2018 Jun  8  0:00)
Gaia = 2013-074A = NORAD 39479
1 39479U 13074A   18159.49919926  .00000000  00000-0  00000-0 2  5954
2 39479 032.9237 019.1053 8653352 056.2190 185.4289 00.01066640    04

# Worst residual: 54.87 km
# MJD 58278.000000 (2018 Jun  9  0:00)
Gaia = 2013-074A = NORAD 39479
1 39479U 13074A   18160.49919926  .00000000  00000-0  00000-0 2  5956
2 39479 032.6919 018.4325 8675125 057.3570 185.3359 00.01069845    05

# Worst residual: 58.15 km
# MJD 58279.000000 (2018 Jun 10  0:00)
Gaia = 2013-074A = NORAD 39479
1 39479U 13074A   18161.49919926  .00000000  00000-0  00000-0 2  5957
2 39479 032.4334 017.6427 8690855 058.6134 185.0758 00.01072547    08

# Worst residual: 59.99 km
# MJD 58280.000000 (2018 Jun 11  0:00)
Gaia = 2013-074A = NORAD 39479
1 39479U 13074A   18162.49919926  .00000000  00000-0  00000-0 2  5958
2 39479 032.1822 016.8325 8699155 059.9123 184.6161 00.01074585    06

# Worst residual: 63.35 km
# MJD 58281.000000 (2018 Jun 12  0:00)
Gaia = 2013-074A = NORAD 39479
1 39479U 13074A   18163.49919926  .00000000  00000-0  00000-0 2  5959
2 39479 031.8756 015.7802 8697226 061.4263 184.0792 00.01075630    02

# Worst residual: 65.08 km
# MJD 58282.000000 (2018 Jun 13  0:00)
Gaia = 2013-074A = NORAD 39479
1 39479U 13074A   18164.49919926  .00000000  00000-0  00000-0 2  5950
2 39479 031.5438 014.5543 8680410 063.0914 183.5366 00.01075232    02

# Worst residual: 62.96 km
# MJD 58283.000000 (2018 Jun 14  0:00)
Gaia = 2013-074A = NORAD 39479
1 39479U 13074A   18165.49919926  .00000000  00000-0  00000-0 2  5951
2 39479 031.2625 013.4328 8652473 064.6896 182.8920 00.01073714    01

# Worst residual: 62.18 km
# MJD 58284.000000 (2018 Jun 15  0:00)
Gaia = 2013-074A = NORAD 39479
1 39479U 13074A   18166.49919926  .00000000  00000-0  00000-0 2  5952
2 39479 030.9751 012.1925 8609224 066.3828 182.3650 00.01070685    05

# Worst residual: 62.77 km
# MJD 58285.000000 (2018 Jun 16  0:00)
Gaia = 2013-074A = NORAD 39479
1 39479U 13074A   18167.49919926  .00000000  00000-0  00000-0 2  5953
2 39479 030.6934 010.8633 8553081 068.1445 181.9904 00.01066393    08

# Worst residual: 59.91 km
# MJD 58286.000000 (2018 Jun 17  0:00)
Gaia = 2013-074A = NORAD 39479
1 39479U 13074A   18168.49919926  .00000000  00000-0  00000-0 2  5954
2 39479 030.4654 009.6827 8485610 069.7717 181.7701 00.01061022    04
